{
  "type": "FeatureCollection",
  "features": [
    {
      "type": "Feature",
      "properties": {
        "norad_id": 31423,
        "name": "FENGYUN 1C DEB",
        "group": "fengyun-1c-debris",
        "lat": 7.340004879634883,
        "lon": -33.15076731833747,
        "alt_km": 843.0589352952966,
        "timestamp": "2025-12-13T03:42:11.555249+00:00",
        "meta_object_name": "FENGYUN 1C DEB",
        "meta_object_id": "1999-025BTK",
        "meta_epoch": "2025-12-11T09:28:43.643712",
        "meta_mean_motion": 14.22970433,
        "meta_eccentricity": 0.00360491,
        "meta_inclination": 98.5833,
        "meta_ra_of_asc_node": 326.2493,
        "meta_arg_of_pericenter": 197.9689,
        "meta_mean_anomaly": 162.0217,
        "meta_ephemeris_type": 0,
        "meta_classification_type": "U",
        "meta_norad_cat_id": 31423,
        "meta_element_set_no": 999,
        "meta_rev_at_epoch": 96949,
        "meta_bstar": 0.00023912069,
        "meta_mean_motion_dot": 4.99e-06,
        "meta_mean_motion_ddot": 0,
        "tle_line1": "1 31423U 99025BTK 25345.39494958  .00000499  00000+0  23912-3 0  9999",
        "tle_line2": "2 31423  98.5833 326.2493 0036049 197.9689 162.0217 14.22970433969492"
      },
      "geometry": {
        "type": "Point",
        "coordinates": [
          -33.15076731833747,
          7.340004879634883
        ]
      }
    },
    {
      "type": "Feature",
      "properties": {
        "norad_id": 31424,
        "name": "FENGYUN 1C DEB",
        "group": "fengyun-1c-debris",
        "lat": 73.43218909732502,
        "lon": -118.7708849216003,
        "alt_km": 789.4820622528223,
        "timestamp": "2025-12-13T03:42:11.555261+00:00",
        "meta_object_name": "FENGYUN 1C DEB",
        "meta_object_id": "1999-025BTL",
        "meta_epoch": "2025-12-10T20:39:09.320256",
        "meta_mean_motion": 14.08356451,
        "meta_eccentricity": 0.0094496,
        "meta_inclination": 98.4819,
        "meta_ra_of_asc_node": 28.9671,
        "meta_arg_of_pericenter": 110.6479,
        "meta_mean_anomaly": 250.4855,
        "meta_ephemeris_type": 0,
        "meta_classification_type": "U",
        "meta_norad_cat_id": 31424,
        "meta_element_set_no": 999,
        "meta_rev_at_epoch": 63144,
        "meta_bstar": 0.00030603,
        "meta_mean_motion_dot": 5.06e-06,
        "meta_mean_motion_ddot": 0,
        "tle_line1": "1 31424U 99025BTL 25344.86052454  .00000506  00000+0  30603-3 0  9996",
        "tle_line2": "2 31424  98.4819  28.9671 0094496 110.6479 250.4855 14.08356451631442"
      },
      "geometry": {
        "type": "Point",
        "coordinates": [
          -118.7708849216003,
          73.43218909732502
        ]
      }
    },
    {
      "type": "Feature",
      "properties": {
        "norad_id": 31426,
        "name": "FENGYUN 1C DEB",
        "group": "fengyun-1c-debris",
        "lat": -80.58793603787795,
        "lon": -100.85207351992416,
        "alt_km": 892.0399546893677,
        "timestamp": "2025-12-13T03:42:11.555275+00:00",
        "meta_object_name": "FENGYUN 1C DEB",
        "meta_object_id": "1999-025BTN",
        "meta_epoch": "2025-12-12T04:50:34.435680",
        "meta_mean_motion": 13.90060316,
        "meta_eccentricity": 0.03246893,
        "meta_inclination": 98.5785,
        "meta_ra_of_asc_node": 143.8557,
        "meta_arg_of_pericenter": 187.5097,
        "meta_mean_anomaly": 350.9599,
        "meta_ephemeris_type": 0,
        "meta_classification_type": "U",
        "meta_norad_cat_id": 31426,
        "meta_element_set_no": 999,
        "meta_rev_at_epoch": 93565,
        "meta_bstar": 0.0045359343,
        "meta_mean_motion_dot": 8.537e-05,
        "meta_mean_motion_ddot": 0,
        "tle_line1": "1 31426U 99025BTN 25346.20178745  .00008537  00000+0  45359-2 0  9995",
        "tle_line2": "2 31426  98.5785 143.8557 0324689 187.5097 350.9599 13.90060316935659"
      },
      "geometry": {
        "type": "Point",
        "coordinates": [
          -100.85207351992416,
          -80.58793603787795
        ]
      }
    },
    {
      "type": "Feature",
      "properties": {
        "norad_id": 31427,
        "name": "FENGYUN 1C DEB",
        "group": "fengyun-1c-debris",
        "lat": -59.32281459763085,
        "lon": 111.13190445457472,
        "alt_km": 699.8874473942078,
        "timestamp": "2025-12-13T03:42:11.555303+00:00",
        "meta_object_name": "FENGYUN 1C DEB",
        "meta_object_id": "1999-025BTP",
        "meta_epoch": "2025-12-12T06:34:37.699680",
        "meta_mean_motion": 14.58660809,
        "meta_eccentricity": 0.00313345,
        "meta_inclination": 98.669,
        "meta_ra_of_asc_node": 95.3107,
        "meta_arg_of_pericenter": 20.4562,
        "meta_mean_anomaly": 339.7883,
        "meta_ephemeris_type": 0,
        "meta_classification_type": "U",
        "meta_norad_cat_id": 31427,
        "meta_element_set_no": 999,
        "meta_rev_at_epoch": 96874,
        "meta_bstar": 0.0037138675,
        "meta_mean_motion_dot": 0.00017416,
        "meta_mean_motion_ddot": 0,
        "tle_line1": "1 31427U 99025BTP 25346.27404745  .00017416  00000+0  37139-2 0  9998",
        "tle_line2": "2 31427  98.6690  95.3107 0031334  20.4562 339.7883 14.58660809968747"
      },
      "geometry": {
        "type": "Point",
        "coordinates": [
          111.13190445457472,
          -59.32281459763085
        ]
      }
    },
    {
      "type": "Feature",
      "properties": {
        "norad_id": 31428,
        "name": "FENGYUN 1C DEB",
        "group": "fengyun-1c-debris",
        "lat": 11.724628937804624,
        "lon": -43.264268158791886,
        "alt_km": 788.1180106125885,
        "timestamp": "2025-12-13T03:42:11.555315+00:00",
        "meta_object_name": "FENGYUN 1C DEB",
        "meta_object_id": "1999-025BTQ",
        "meta_epoch": "2025-12-11T05:04:26.079744",
        "meta_mean_motion": 14.42001157,
        "meta_eccentricity": 0.00637524,
        "meta_inclination": 99.0396,
        "meta_ra_of_asc_node": 316.5728,
        "meta_arg_of_pericenter": 158.2823,
        "meta_mean_anomaly": 213.9369,
        "meta_ephemeris_type": 0,
        "meta_classification_type": "U",
        "meta_norad_cat_id": 31428,
        "meta_element_set_no": 999,
        "meta_rev_at_epoch": 97488,
        "meta_bstar": 0.0011588504,
        "meta_mean_motion_dot": 3.847e-05,
        "meta_mean_motion_ddot": 0,
        "tle_line1": "1 31428U 99025BTQ 25345.21141296  .00003847  00000+0  11589-2 0  9995",
        "tle_line2": "2 31428  99.0396 316.5728 0063752 158.2823 213.9369 14.42001157974884"
      },
      "geometry": {
        "type": "Point",
        "coordinates": [
          -43.264268158791886,
          11.724628937804624
        ]
      }
    },
    {
      "type": "Feature",
      "properties": {
        "norad_id": 31429,
        "name": "FENGYUN 1C DEB",
        "group": "fengyun-1c-debris",
        "lat": 32.75646375656215,
        "lon": 30.437545821956224,
        "alt_km": 805.4549856421636,
        "timestamp": "2025-12-13T03:42:11.555325+00:00",
        "meta_object_name": "FENGYUN 1C DEB",
        "meta_object_id": "1999-025BTR",
        "meta_epoch": "2025-12-12T02:21:59.541120",
        "meta_mean_motion": 14.22564467,
        "meta_eccentricity": 0.00146508,
        "meta_inclination": 98.6901,
        "meta_ra_of_asc_node": 35.0437,
        "meta_arg_of_pericenter": 65.7145,
        "meta_mean_anomaly": 324.2317,
        "meta_ephemeris_type": 0,
        "meta_classification_type": "U",
        "meta_norad_cat_id": 31429,
        "meta_element_set_no": 999,
        "meta_rev_at_epoch": 95944,
        "meta_bstar": 0.0015343378,
        "meta_mean_motion_dot": 3.388e-05,
        "meta_mean_motion_ddot": 0,
        "tle_line1": "1 31429U 99025BTR 25346.09860580  .00003388  00000+0  15343-2 0  9999",
        "tle_line2": "2 31429  98.6901  35.0437 0014650  65.7145 324.2317 14.22564467959444"
      },
      "geometry": {
        "type": "Point",
        "coordinates": [
          30.437545821956224,
          32.75646375656215
        ]
      }
    },
    {
      "type": "Feature",
      "properties": {
        "norad_id": 31430,
        "name": "FENGYUN 1C DEB",
        "group": "fengyun-1c-debris",
        "lat": -58.968586768883604,
        "lon": 64.99984171725211,
        "alt_km": 817.2781078978605,
        "timestamp": "2025-12-13T03:42:11.555336+00:00",
        "meta_object_name": "FENGYUN 1C DEB",
        "meta_object_id": "1999-025BTS",
        "meta_epoch": "2025-12-11T15:38:30.869088",
        "meta_mean_motion": 14.25596186,
        "meta_eccentricity": 0.00269185,
        "meta_inclination": 98.7436,
        "meta_ra_of_asc_node": 48.6801,
        "meta_arg_of_pericenter": 45.6074,
        "meta_mean_anomaly": 107.6578,
        "meta_ephemeris_type": 0,
        "meta_classification_type": "U",
        "meta_norad_cat_id": 31430,
        "meta_element_set_no": 999,
        "meta_rev_at_epoch": 96102,
        "meta_bstar": 0.0014563792,
        "meta_mean_motion_dot": 3.418e-05,
        "meta_mean_motion_ddot": 0,
        "tle_line1": "1 31430U 99025BTS 25345.65174617  .00003418  00000+0  14564-2 0  9999",
        "tle_line2": "2 31430  98.7436  48.6801 0026918  45.6074 107.6578 14.25596186961028"
      },
      "geometry": {
        "type": "Point",
        "coordinates": [
          64.99984171725211,
          -58.968586768883604
        ]
      }
    }
  ]
}